[
  {"code": "AR", "name": "Argentina", "chinese_name": "阿根廷", "calling_code": "+54"},
  {"code": "AT", "name": "Austria", "chinese_name": "奥地利", "calling_code": "+43"},
  {"code": "BE", "name": "Belgium", "chinese_name": "比利时", "calling_code": "+32"},
  {"code": "BR", "name": "Brazil", "chinese_name": "巴西", "calling_code": "+55"},
  {"code": "BG", "name": "Bulgaria", "chinese_name": "保加利亚", "calling_code": "+359"},
  {"code": "CA", "name": "Canada", "chinese_name": "加拿大", "calling_code": "+1"},
  {"code": "CL", "name": "Chile", "chinese_name": "智利", "calling_code": "+56"},
  {"code": "CO", "name": "Colombia", "chinese_name": "哥伦比亚", "calling_code": "+57"},
  {"code": "CY", "name": "Cyprus", "chinese_name": "塞浦路斯", "calling_code": "+357"},
  {"code": "CZ", "name": "Czech Republic", "chinese_name": "捷克共和国", "calling_code": "+420"},
  {"code": "DE", "name": "Germany", "chinese_name": "德国", "calling_code": "+49"},
  {"code": "DK", "name": "Denmark", "chinese_name": "丹麦", "calling_code": "+45"},
  {"code": "EE", "name": "Estonia", "chinese_name": "爱沙尼亚", "calling_code": "+372"},
  {"code": "ES", "name": "Spain", "chinese_name": "西班牙", "calling_code": "+34"},
  {"code": "FI", "name": "Finland", "chinese_name": "芬兰", "calling_code": "+358"},
  {"code": "FR", "name": "France", "chinese_name": "法国", "calling_code": "+33"},
  {"code": "UK", "name": "United Kingdom", "chinese_name": "英国", "calling_code": "+44"},
  {"code": "GR", "name": "Greece", "chinese_name": "希腊", "calling_code": "+30"},
  {"code": "HK", "name": "Hong Kong", "chinese_name": "香港", "calling_code": "+852"},
  {"code": "HR", "name": "Croatia", "chinese_name": "克罗地亚", "calling_code": "+385"},
  {"code": "HU", "name": "Hungary", "chinese_name": "匈牙利", "calling_code": "+36"},
  {"code": "IE", "name": "Ireland", "chinese_name": "爱尔兰", "calling_code": "+353"},
  {"code": "IN", "name": "India", "chinese_name": "印度", "calling_code": "+91"},
  {"code": "IT", "name": "Italy", "chinese_name": "意大利", "calling_code": "+39"},
  {"code": "JP", "name": "Japan", "chinese_name": "日本", "calling_code": "+81"},
  {"code": "KR", "name": "South Korea", "chinese_name": "韩国", "calling_code": "+82"},
  {"code": "LT", "name": "Lithuania", "chinese_name": "立陶宛", "calling_code": "+370"},
  {"code": "LU", "name": "Luxembourg", "chinese_name": "卢森堡", "calling_code": "+352"},
  {"code": "LV", "name": "Latvia", "chinese_name": "拉脱维亚", "calling_code": "+371"},
  {"code": "MC", "name": "Monaco", "chinese_name": "摩纳哥", "calling_code": "+377"},
  {"code": "MD", "name": "Moldova", "chinese_name": "摩尔多瓦", "calling_code": "+373"},
  {"code": "ME", "name": "Montenegro", "chinese_name": "黑山", "calling_code": "+382"},
  {"code": "MX", "name": "Mexico", "chinese_name": "墨西哥", "calling_code": "+52"},
  {"code": "NL", "name": "Netherlands", "chinese_name": "荷兰", "calling_code": "+31"},
  {"code": "NO", "name": "Norway", "chinese_name": "挪威", "calling_code": "+47"},
  {"code": "PE", "name": "Peru", "chinese_name": "秘鲁", "calling_code": "+51"},
  {"code": "PL", "name": "Poland", "chinese_name": "波兰", "calling_code": "+48"},
  {"code": "PT", "name": "Portugal", "chinese_name": "葡萄牙", "calling_code": "+351"},
  {"code": "QA", "name": "Qatar", "chinese_name": "卡塔尔", "calling_code": "+974"},
  {"code": "RO", "name": "Romania", "chinese_name": "罗马尼亚", "calling_code": "+40"},
  {"code": "RS", "name": "Serbia", "chinese_name": "塞尔维亚", "calling_code": "+381"},
  {"code": "SA", "name": "Saudi Arabia", "chinese_name": "沙特阿拉伯", "calling_code": "+966"},
  {"code": "SE", "name": "Sweden", "chinese_name": "瑞典", "calling_code": "+46"},
  {"code": "SI", "name": "Slovenia", "chinese_name": "斯洛文尼亚", "calling_code": "+383"},
  {"code": "SK", "name": "Slovakia", "chinese_name": "斯洛伐克", "calling_code": "+421"},
  {"code": "CH", "name": "Switzerland", "chinese_name": "瑞士", "calling_code": "+41"},
  {"code": "US", "name": "United States of America", "chinese_name": "美国", "calling_code": "+1"},
  {"code": "SG", "name": "Singapore", "chinese_name": "新加坡", "calling_code": "+65"},
  {"code": "TH", "name": "Thailand", "chinese_name": "泰国", "calling_code": "+66"}

]